[{"OBJECT_NAME":"SL-14 R/B","OBJECT_ID":"1986-006B","EPOCH":"2026-04-01T20:57:22.812480","MEAN_MOTION":14.86854473,"ECCENTRICITY":0.0076115,"INCLINATION":82.5258,"RA_OF_ASC_NODE":237.9133,"ARG_OF_PERICENTER":194.7849,"MEAN_ANOMALY":165.1144,"EPHEMERIS_TYPE":0,"CLASSIFICATION_TYPE":"U","NORAD_CAT_ID":16496,"ELEMENT_SET_NO":999,"REV_AT_EPOCH":15265,"BSTAR":0.00012045,"MEAN_MOTION_DOT":1.159e-5,"MEAN_MOTION_DDOT":0},{"OBJECT_NAME":"COSMOS 1743","OBJECT_ID":"1986-034A","EPOCH":"2026-04-01T19:20:47.141952","MEAN_MOTION":15.60572127,"ECCENTRICITY":0.0005141,"INCLINATION":82.5313,"RA_OF_ASC_NODE":49.5333,"ARG_OF_PERICENTER":161.1896,"MEAN_ANOMALY":198.9551,"EPHEMERIS_TYPE":0,"CLASSIFICATION_TYPE":"U","NORAD_CAT_ID":16719,"ELEMENT_SET_NO":999,"REV_AT_EPOCH":18385,"BSTAR":0.00068169,"MEAN_MOTION_DOT":0.00056605,"MEAN_MOTION_DDOT":0},{"OBJECT_NAME":"SL-14 R/B","OBJECT_ID":"1986-046B","EPOCH":"2026-04-01T15:22:22.412352","MEAN_MOTION":14.85613449,"ECCENTRICITY":0.0023872,"INCLINATION":82.481,"RA_OF_ASC_NODE":58.4912,"ARG_OF_PERICENTER":148.7896,"MEAN_ANOMALY":211.4744,"EPHEMERIS_TYPE":0,"CLASSIFICATION_TYPE":"U","NORAD_CAT_ID":16792,"ELEMENT_SET_NO":999,"REV_AT_EPOCH":12981,"BSTAR":6.9122e-5,"MEAN_MOTION_DOT":6.26e-6,"MEAN_MOTION_DDOT":0},{"OBJECT_NAME":"SL-14 R/B","OBJECT_ID":"1986-055B","EPOCH":"2026-04-01T12:27:46.833120","MEAN_MOTION":14.85663347,"ECCENTRICITY":0.0017357,"INCLINATION":82.5169,"RA_OF_ASC_NODE":105.2098,"ARG_OF_PERICENTER":255.4997,"MEAN_ANOMALY":265.8874,"EPHEMERIS_TYPE":0,"CLASSIFICATION_TYPE":"U","NORAD_CAT_ID":16882,"ELEMENT_SET_NO":999,"REV_AT_EPOCH":12275,"BSTAR":6.0119e-5,"MEAN_MOTION_DOT":5.46e-6,"MEAN_MOTION_DDOT":0},{"OBJECT_NAME":"AJISAI (EGS)","OBJECT_ID":"1986-061A","EPOCH":"2026-04-01T20:24:48.889440","MEAN_MOTION":12.4451563,"ECCENTRICITY":0.0011354,"INCLINATION":50.0118,"RA_OF_ASC_NODE":22.1275,"ARG_OF_PERICENTER":346.6333,"MEAN_ANOMALY":112.6237,"EPHEMERIS_TYPE":0,"CLASSIFICATION_TYPE":"U","NORAD_CAT_ID":16908,"ELEMENT_SET_NO":999,"REV_AT_EPOCH":47088,"BSTAR":-2.5797e-5,"MEAN_MOTION_DOT":-1.01e-6,"MEAN_MOTION_DDOT":0},{"OBJECT_NAME":"SL-14 R/B","OBJECT_ID":"1987-024B","EPOCH":"2026-04-01T15:58:25.491648","MEAN_MOTION":14.86154797,"ECCENTRICITY":0.0018156,"INCLINATION":82.5258,"RA_OF_ASC_NODE":71.1625,"ARG_OF_PERICENTER":179.7105,"MEAN_ANOMALY":180.4125,"EPHEMERIS_TYPE":0,"CLASSIFICATION_TYPE":"U","NORAD_CAT_ID":17567,"ELEMENT_SET_NO":999,"REV_AT_EPOCH":9154,"BSTAR":6.5909e-5,"MEAN_MOTION_DOT":6.04e-6,"MEAN_MOTION_DDOT":0},{"OBJECT_NAME":"COSMOS 1833","OBJECT_ID":"1987-027A","EPOCH":"2026-04-01T20:48:26.919936","MEAN_MOTION":14.13045481,"ECCENTRICITY":0.0023076,"INCLINATION":70.9167,"RA_OF_ASC_NODE":277.302,"ARG_OF_PERICENTER":180.1208,"MEAN_ANOMALY":179.9911,"EPHEMERIS_TYPE":0,"CLASSIFICATION_TYPE":"U","NORAD_CAT_ID":17589,"ELEMENT_SET_NO":999,"REV_AT_EPOCH":1359,"BSTAR":-0.00013786,"MEAN_MOTION_DOT":-3.06e-6,"MEAN_MOTION_DDOT":0},{"OBJECT_NAME":"SL-16 R/B","OBJECT_ID":"1987-027B","EPOCH":"2026-04-01T18:33:41.842944","MEAN_MOTION":14.17167041,"ECCENTRICITY":0.0002887,"INCLINATION":71.002,"RA_OF_ASC_NODE":227.8479,"ARG_OF_PERICENTER":85.0271,"MEAN_ANOMALY":275.1182,"EPHEMERIS_TYPE":0,"CLASSIFICATION_TYPE":"U","NORAD_CAT_ID":17590,"ELEMENT_SET_NO":999,"REV_AT_EPOCH":1861,"BSTAR":0.00014285,"MEAN_MOTION_DOT":2.4e-6,"MEAN_MOTION_DDOT":0},{"OBJECT_NAME":"SL-14 R/B","OBJECT_ID":"1987-038B","EPOCH":"2026-04-01T20:59:10.297536","MEAN_MOTION":14.85391137,"ECCENTRICITY":0.0020765,"INCLINATION":82.4977,"RA_OF_ASC_NODE":274.9598,"ARG_OF_PERICENTER":88.2493,"MEAN_ANOMALY":272.1101,"EPHEMERIS_TYPE":0,"CLASSIFICATION_TYPE":"U","NORAD_CAT_ID":17912,"ELEMENT_SET_NO":999,"REV_AT_EPOCH":8267,"BSTAR":6.4528e-5,"MEAN_MOTION_DOT":5.82e-6,"MEAN_MOTION_DDOT":0},{"OBJECT_NAME":"COSMOS 1844","OBJECT_ID":"1987-041A","EPOCH":"2026-04-01T21:03:32.300352","MEAN_MOTION":14.14560032,"ECCENTRICITY":0.0031329,"INCLINATION":70.9016,"RA_OF_ASC_NODE":345.2688,"ARG_OF_PERICENTER":343.8803,"MEAN_ANOMALY":16.1318,"EPHEMERIS_TYPE":0,"CLASSIFICATION_TYPE":"U","NORAD_CAT_ID":17973,"ELEMENT_SET_NO":999,"REV_AT_EPOCH":686,"BSTAR":0.00022842,"MEAN_MOTION_DOT":3.92e-6,"MEAN_MOTION_DDOT":0},{"OBJECT_NAME":"SL-14 R/B","OBJECT_ID":"1987-055B","EPOCH":"2026-04-01T05:47:04.177248","MEAN_MOTION":14.8565145,"ECCENTRICITY":0.0019339,"INCLINATION":82.5001,"RA_OF_ASC_NODE":327.7798,"ARG_OF_PERICENTER":301.4672,"MEAN_ANOMALY":58.4653,"EPHEMERIS_TYPE":0,"CLASSIFICATION_TYPE":"U","NORAD_CAT_ID":18153,"ELEMENT_SET_NO":999,"REV_AT_EPOCH":7328,"BSTAR":4.9335e-5,"MEAN_MOTION_DOT":4.53e-6,"MEAN_MOTION_DDOT":0},{"OBJECT_NAME":"COSMOS 1867","OBJECT_ID":"1987-060A","EPOCH":"2026-04-01T16:55:23.944800","MEAN_MOTION":14.31506662,"ECCENTRICITY":0.0014895,"INCLINATION":65.0098,"RA_OF_ASC_NODE":242.2472,"ARG_OF_PERICENTER":279.9787,"MEAN_ANOMALY":79.9616,"EPHEMERIS_TYPE":0,"CLASSIFICATION_TYPE":"U","NORAD_CAT_ID":18187,"ELEMENT_SET_NO":999,"REV_AT_EPOCH":2323,"BSTAR":3.0474e-5,"MEAN_MOTION_DOT":-1.9e-7,"MEAN_MOTION_DDOT":0},{"OBJECT_NAME":"SL-14 R/B","OBJECT_ID":"1988-001B","EPOCH":"2026-04-01T07:19:38.516160","MEAN_MOTION":14.85552398,"ECCENTRICITY":0.0018627,"INCLINATION":82.5158,"RA_OF_ASC_NODE":174.0964,"ARG_OF_PERICENTER":159.2606,"MEAN_ANOMALY":200.9371,"EPHEMERIS_TYPE":0,"CLASSIFICATION_TYPE":"U","NORAD_CAT_ID":18749,"ELEMENT_SET_NO":999,"REV_AT_EPOCH":4538,"BSTAR":5.7964e-5,"MEAN_MOTION_DOT":5.27e-6,"MEAN_MOTION_DDOT":0},{"OBJECT_NAME":"COSMOS 1933","OBJECT_ID":"1988-020A","EPOCH":"2026-04-01T19:03:34.299936","MEAN_MOTION":15.1820921,"ECCENTRICITY":0.0005502,"INCLINATION":82.5128,"RA_OF_ASC_NODE":228.0466,"ARG_OF_PERICENTER":114.1422,"MEAN_ANOMALY":246.0388,"EPHEMERIS_TYPE":0,"CLASSIFICATION_TYPE":"U","NORAD_CAT_ID":18958,"ELEMENT_SET_NO":999,"REV_AT_EPOCH":5373,"BSTAR":0.00030096,"MEAN_MOTION_DOT":6.186e-5,"MEAN_MOTION_DDOT":0},{"OBJECT_NAME":"SL-3 R/B","OBJECT_ID":"1988-032B","EPOCH":"2026-04-01T20:07:59.320992","MEAN_MOTION":15.20168502,"ECCENTRICITY":0.0026778,"INCLINATION":97.5216,"RA_OF_ASC_NODE":75.0164,"ARG_OF_PERICENTER":149.7597,"MEAN_ANOMALY":210.519,"EPHEMERIS_TYPE":0,"CLASSIFICATION_TYPE":"U","NORAD_CAT_ID":19046,"ELEMENT_SET_NO":999,"REV_AT_EPOCH":5562,"BSTAR":0.00028686,"MEAN_MOTION_DOT":6.197e-5,"MEAN_MOTION_DDOT":0},{"OBJECT_NAME":"SL-16 R/B","OBJECT_ID":"1988-039B","EPOCH":"2026-04-01T21:08:07.548288","MEAN_MOTION":14.19620344,"ECCENTRICITY":0.0023776,"INCLINATION":71.0173,"RA_OF_ASC_NODE":19.5097,"ARG_OF_PERICENTER":301.1861,"MEAN_ANOMALY":58.6933,"EPHEMERIS_TYPE":0,"CLASSIFICATION_TYPE":"U","NORAD_CAT_ID":19120,"ELEMENT_SET_NO":999,"REV_AT_EPOCH":96167,"BSTAR":1.9712e-5,"MEAN_MOTION_DOT":-7.0e-8,"MEAN_MOTION_DDOT":0},{"OBJECT_NAME":"COSMOS 1953","OBJECT_ID":"1988-050A","EPOCH":"2026-04-01T20:42:24.360480","MEAN_MOTION":15.28885196,"ECCENTRICITY":0.0012076,"INCLINATION":82.5068,"RA_OF_ASC_NODE":134.9343,"ARG_OF_PERICENTER":50.383,"MEAN_ANOMALY":309.8473,"EPHEMERIS_TYPE":0,"CLASSIFICATION_TYPE":"U","NORAD_CAT_ID":19210,"ELEMENT_SET_NO":999,"REV_AT_EPOCH":4132,"BSTAR":0.00028169,"MEAN_MOTION_DOT":7.953e-5,"MEAN_MOTION_DDOT":0}]
